ARIANE 5 R/B            
1 28499U 04049H   25311.00726183  .00001086  00000+0  12669-3 0  9999
2 28499  98.2515 110.0148 0085339  29.4041 331.1935 14.84899762127583
CZ-2D R/B               
1 28738U 05024B   25311.26019086  .00030965  00000+0  53698-3 0  9999
2 28738  97.3664 317.8349 0008155 104.0212 256.1947 15.50791835120752
ALOS (DAICHI)           
1 28931U 06002A   25310.80897623  .00002684  00000+0  46298-3 0  9996
2 28931  98.1034 262.5649 0001371  50.7602 309.3725 14.69304352 55439
H-2A R/B                
1 28932U 06002B   25311.29570581  .00012010  00000+0  64892-3 0  9996
2 28932  98.2310  83.1843 0054691 297.6987  61.8699 15.13577372 75900
RESURS-DK 1             
1 29228U 06021A   25311.23851892  .00004135  00000+0  24720-3 0  9992
2 29228  69.9333 193.5629 0007391 288.0137  72.0222 15.11866744 69016
CZ-4B R/B               
1 29507U 06046C   25311.11734788  .00006527  00000+0  34499-3 0  9991
2 29507  97.5784 351.3546 0033645 334.5788  25.3788 15.15337453 41477
CZ-2C R/B               
1 31114U 07010B   25311.28087206  .00000224  00000+0  12237-3 0  9998
2 31114  98.3956  65.7201 0057960 290.5006  68.9957 14.20187520962340
COSMO-SKYMED 1          
1 31598U 07023A   25311.32837108  .00005458  00000+0  49971-3 0  9996
2 31598  97.8849 136.5030 0001382  92.3504 267.7875 14.95366961996600
COSMOS 2428             
1 31792U 07029A   25310.84380889 -.00000244  00000+0 -10555-3 0  9999
2 31792  70.9363 101.2402 0001902  92.4975 267.6363 14.12890458946745
SL-16 R/B               
1 31793U 07029B   25310.60439928  .00000168  00000+0  11207-3 0  9991
2 31793  70.9750  71.1123 0002206 257.7834 113.4747 14.14804273947960
KORONAS-FOTON           
1 33504U 09003A   25311.29127721  .00017082  00000+0  42581-3 0  9990
2 33504  82.4341  42.7979 0010782 233.5890 126.4362 15.40027206926889
CZ-2C R/B               
1 37731U 11030B   25310.84232822  .00002814  00000+0  36372-3 0  9996
2 37731  97.8356 265.7602 0054018  31.5987 358.5085 14.80702818771918
