CCSDS_OMM_VERS = 2.0
CREATION_DATE  = 
ORIGINATOR     = 

OBJECT_NAME    = ARIANE 5 R/B
OBJECT_ID      = 2004-049H
CENTER_NAME    = EARTH
REF_FRAME      = TEME
TIME_SYSTEM    = UTC
MEAN_ELEMENT_THEORY = SGP/SGP4

EPOCH          = 2025-11-07T00:10:27.422112
MEAN_MOTION    = 14.84899762
ECCENTRICITY   = .00853398
INCLINATION    = 98.2515
RA_OF_ASC_NODE = 110.0148
ARG_OF_PERICENTER = 29.4041
MEAN_ANOMALY   = 331.1935

EPHEMERIS_TYPE = 0
CLASSIFICATION_TYPE = U
NORAD_CAT_ID   = 28499
ELEMENT_SET_NO = 999
REV_AT_EPOCH   = 12758
BSTAR          = .12669341E-3
MEAN_MOTION_DOT = .1086E-4
MEAN_MOTION_DDOT = 0

CCSDS_OMM_VERS = 2.0
CREATION_DATE  = 
ORIGINATOR     = 

OBJECT_NAME    = CZ-2D R/B
OBJECT_ID      = 2005-024B
CENTER_NAME    = EARTH
REF_FRAME      = TEME
TIME_SYSTEM    = UTC
MEAN_ELEMENT_THEORY = SGP/SGP4

EPOCH          = 2025-11-07T06:14:40.490304
MEAN_MOTION    = 15.50791835
ECCENTRICITY   = .00081557
INCLINATION    = 97.3664
RA_OF_ASC_NODE = 317.8349
ARG_OF_PERICENTER = 104.0212
MEAN_ANOMALY   = 256.1947

EPHEMERIS_TYPE = 0
CLASSIFICATION_TYPE = U
NORAD_CAT_ID   = 28738
ELEMENT_SET_NO = 999
REV_AT_EPOCH   = 12075
BSTAR          = .53697847E-3
MEAN_MOTION_DOT = .30965E-3
MEAN_MOTION_DDOT = 0

CCSDS_OMM_VERS = 2.0
CREATION_DATE  = 
ORIGINATOR     = 

OBJECT_NAME    = ALOS (DAICHI)
OBJECT_ID      = 2006-002A
CENTER_NAME    = EARTH
REF_FRAME      = TEME
TIME_SYSTEM    = UTC
MEAN_ELEMENT_THEORY = SGP/SGP4

EPOCH          = 2025-11-06T19:24:55.546272
MEAN_MOTION    = 14.69304352
ECCENTRICITY   = .00013712
INCLINATION    = 98.1034
RA_OF_ASC_NODE = 262.5649
ARG_OF_PERICENTER = 50.7602
MEAN_ANOMALY   = 309.3725

EPHEMERIS_TYPE = 0
CLASSIFICATION_TYPE = U
NORAD_CAT_ID   = 28931
ELEMENT_SET_NO = 999
REV_AT_EPOCH   = 5543
BSTAR          = .46297856E-3
MEAN_MOTION_DOT = .2684E-4
MEAN_MOTION_DDOT = 0

CCSDS_OMM_VERS = 2.0
CREATION_DATE  = 
ORIGINATOR     = 

OBJECT_NAME    = H-2A R/B
OBJECT_ID      = 2006-002B
CENTER_NAME    = EARTH
REF_FRAME      = TEME
TIME_SYSTEM    = UTC
MEAN_ELEMENT_THEORY = SGP/SGP4

EPOCH          = 2025-11-07T07:05:48.981984
MEAN_MOTION    = 15.13577372
ECCENTRICITY   = .00546911
INCLINATION    = 98.2310
RA_OF_ASC_NODE = 83.1843
ARG_OF_PERICENTER = 297.6987
MEAN_ANOMALY   = 61.8699

EPHEMERIS_TYPE = 0
CLASSIFICATION_TYPE = U
NORAD_CAT_ID   = 28932
ELEMENT_SET_NO = 999
REV_AT_EPOCH   = 7590
BSTAR          = .64891859E-3
MEAN_MOTION_DOT = .1201E-3
MEAN_MOTION_DDOT = 0

CCSDS_OMM_VERS = 2.0
CREATION_DATE  = 
ORIGINATOR     = 

OBJECT_NAME    = RESURS-DK 1
OBJECT_ID      = 2006-021A
CENTER_NAME    = EARTH
REF_FRAME      = TEME
TIME_SYSTEM    = UTC
MEAN_ELEMENT_THEORY = SGP/SGP4

EPOCH          = 2025-11-07T05:43:28.034688
MEAN_MOTION    = 15.11866744
ECCENTRICITY   = .00073911
INCLINATION    = 69.9333
RA_OF_ASC_NODE = 193.5629
ARG_OF_PERICENTER = 288.0137
MEAN_ANOMALY   = 72.0222

EPHEMERIS_TYPE = 0
CLASSIFICATION_TYPE = U
NORAD_CAT_ID   = 29228
ELEMENT_SET_NO = 999
REV_AT_EPOCH   = 6901
BSTAR          = .24720351E-3
MEAN_MOTION_DOT = .4135E-4
MEAN_MOTION_DDOT = 0

CCSDS_OMM_VERS = 2.0
CREATION_DATE  = 
ORIGINATOR     = 

OBJECT_NAME    = CZ-4B R/B
OBJECT_ID      = 2006-046C
CENTER_NAME    = EARTH
REF_FRAME      = TEME
TIME_SYSTEM    = UTC
MEAN_ELEMENT_THEORY = SGP/SGP4

EPOCH          = 2025-11-07T02:48:58.856832
MEAN_MOTION    = 15.15337453
ECCENTRICITY   = .00336457
INCLINATION    = 97.5784
RA_OF_ASC_NODE = 351.3546
ARG_OF_PERICENTER = 334.5788
MEAN_ANOMALY   = 25.3788

EPHEMERIS_TYPE = 0
CLASSIFICATION_TYPE = U
NORAD_CAT_ID   = 29507
ELEMENT_SET_NO = 999
REV_AT_EPOCH   = 4147
BSTAR          = .34498623E-3
MEAN_MOTION_DOT = .6527E-4
MEAN_MOTION_DDOT = 0

CCSDS_OMM_VERS = 2.0
CREATION_DATE  = 
ORIGINATOR     = 

OBJECT_NAME    = CZ-2C R/B
OBJECT_ID      = 2007-010B
CENTER_NAME    = EARTH
REF_FRAME      = TEME
TIME_SYSTEM    = UTC
MEAN_ELEMENT_THEORY = SGP/SGP4

EPOCH          = 2025-11-07T06:44:27.345984
MEAN_MOTION    = 14.20187520
ECCENTRICITY   = .00579601
INCLINATION    = 98.3956
RA_OF_ASC_NODE = 65.7201
ARG_OF_PERICENTER = 290.5006
MEAN_ANOMALY   = 68.9957

EPHEMERIS_TYPE = 0
CLASSIFICATION_TYPE = U
NORAD_CAT_ID   = 31114
ELEMENT_SET_NO = 999
REV_AT_EPOCH   = 96234
BSTAR          = .12237304E-3
MEAN_MOTION_DOT = .224E-5
MEAN_MOTION_DDOT = 0

CCSDS_OMM_VERS = 2.0
CREATION_DATE  = 
ORIGINATOR     = 

OBJECT_NAME    = COSMO-SKYMED 1
OBJECT_ID      = 2007-023A
CENTER_NAME    = EARTH
REF_FRAME      = TEME
TIME_SYSTEM    = UTC
MEAN_ELEMENT_THEORY = SGP/SGP4

EPOCH          = 2025-11-07T07:52:51.261312
MEAN_MOTION    = 14.95366961
ECCENTRICITY   = .00013829
INCLINATION    = 97.8849
RA_OF_ASC_NODE = 136.5030
ARG_OF_PERICENTER = 92.3504
MEAN_ANOMALY   = 267.7875

EPHEMERIS_TYPE = 0
CLASSIFICATION_TYPE = U
NORAD_CAT_ID   = 31598
ELEMENT_SET_NO = 999
REV_AT_EPOCH   = 99660
BSTAR          = .49971383E-3
MEAN_MOTION_DOT = .5458E-4
MEAN_MOTION_DDOT = 0

CCSDS_OMM_VERS = 2.0
CREATION_DATE  = 
ORIGINATOR     = 

OBJECT_NAME    = COSMOS 2428
OBJECT_ID      = 2007-029A
CENTER_NAME    = EARTH
REF_FRAME      = TEME
TIME_SYSTEM    = UTC
MEAN_ELEMENT_THEORY = SGP/SGP4

EPOCH          = 2025-11-06T20:15:05.088096
MEAN_MOTION    = 14.12890458
ECCENTRICITY   = .0001902
INCLINATION    = 70.9363
RA_OF_ASC_NODE = 101.2402
ARG_OF_PERICENTER = 92.4975
MEAN_ANOMALY   = 267.6363

EPHEMERIS_TYPE = 0
CLASSIFICATION_TYPE = U
NORAD_CAT_ID   = 31792
ELEMENT_SET_NO = 999
REV_AT_EPOCH   = 94674
BSTAR          = -.10555E-3
MEAN_MOTION_DOT = -.244E-5
MEAN_MOTION_DDOT = 0

CCSDS_OMM_VERS = 2.0
CREATION_DATE  = 
ORIGINATOR     = 

OBJECT_NAME    = SL-16 R/B
OBJECT_ID      = 2007-029B
CENTER_NAME    = EARTH
REF_FRAME      = TEME
TIME_SYSTEM    = UTC
MEAN_ELEMENT_THEORY = SGP/SGP4

EPOCH          = 2025-11-06T14:30:20.097792
MEAN_MOTION    = 14.14804273
ECCENTRICITY   = .00022065
INCLINATION    = 70.9750
RA_OF_ASC_NODE = 71.1123
ARG_OF_PERICENTER = 257.7834
MEAN_ANOMALY   = 113.4747

EPHEMERIS_TYPE = 0
CLASSIFICATION_TYPE = U
NORAD_CAT_ID   = 31793
ELEMENT_SET_NO = 999
REV_AT_EPOCH   = 94796
BSTAR          = .11206548E-3
MEAN_MOTION_DOT = .168E-5
MEAN_MOTION_DDOT = 0

CCSDS_OMM_VERS = 2.0
CREATION_DATE  = 
ORIGINATOR     = 

OBJECT_NAME    = KORONAS-FOTON
OBJECT_ID      = 2009-003A
CENTER_NAME    = EARTH
REF_FRAME      = TEME
TIME_SYSTEM    = UTC
MEAN_ELEMENT_THEORY = SGP/SGP4

EPOCH          = 2025-11-07T06:59:26.350944
MEAN_MOTION    = 15.40027206
ECCENTRICITY   = .00107823
INCLINATION    = 82.4341
RA_OF_ASC_NODE = 42.7979
ARG_OF_PERICENTER = 233.5890
MEAN_ANOMALY   = 126.4362

EPHEMERIS_TYPE = 0
CLASSIFICATION_TYPE = U
NORAD_CAT_ID   = 33504
ELEMENT_SET_NO = 999
REV_AT_EPOCH   = 92688
BSTAR          = .42580833E-3
MEAN_MOTION_DOT = .17082E-3
MEAN_MOTION_DDOT = 0

CCSDS_OMM_VERS = 2.0
CREATION_DATE  = 
ORIGINATOR     = 

OBJECT_NAME    = CZ-2C R/B
OBJECT_ID      = 2011-030B
CENTER_NAME    = EARTH
REF_FRAME      = TEME
TIME_SYSTEM    = UTC
MEAN_ELEMENT_THEORY = SGP/SGP4

EPOCH          = 2025-11-06T20:12:57.158208
MEAN_MOTION    = 14.80702818
ECCENTRICITY   = .00540181
INCLINATION    = 97.8356
RA_OF_ASC_NODE = 265.7602
ARG_OF_PERICENTER = 31.5987
MEAN_ANOMALY   = 358.5085

EPHEMERIS_TYPE = 0
CLASSIFICATION_TYPE = U
NORAD_CAT_ID   = 37731
ELEMENT_SET_NO = 999
REV_AT_EPOCH   = 77191
BSTAR          = .36372049E-3
MEAN_MOTION_DOT = .2814E-4
MEAN_MOTION_DDOT = 0

